[{"OBJECT_NAME":"GAOFEN-9 05","OBJECT_ID":"2020-058A","EPOCH":"2026-03-10T00:01:50.876256","MEAN_MOTION":15.30293976,"ECCENTRICITY":0.0010522,"INCLINATION":97.2228,"RA_OF_ASC_NODE":111.963,"ARG_OF_PERICENTER":91.0204,"MEAN_ANOMALY":269.2242,"EPHEMERIS_TYPE":0,"CLASSIFICATION_TYPE":"U","NORAD_CAT_ID":46232,"ELEMENT_SET_NO":999,"REV_AT_EPOCH":30843,"BSTAR":0.00025120304,"MEAN_MOTION_DOT":7.299e-5,"MEAN_MOTION_DDOT":0},{"OBJECT_NAME":"STARLINK-35678","OBJECT_ID":"2025-288N","EPOCH":"2026-03-09T06:31:43.899168","MEAN_MOTION":15.27579927,"ECCENTRICITY":0.00031155,"INCLINATION":43.0048,"RA_OF_ASC_NODE":25.7996,"ARG_OF_PERICENTER":243.2531,"MEAN_ANOMALY":116.8002,"EPHEMERIS_TYPE":0,"CLASSIFICATION_TYPE":"U","NORAD_CAT_ID":66971,"ELEMENT_SET_NO":999,"REV_AT_EPOCH":1522,"BSTAR":0.0010863423,"MEAN_MOTION_DOT":0.00029755,"MEAN_MOTION_DDOT":0}]
